ONEWEB-0327             
1 49196U 21083L   23228.11277109  .00000055  00000+0  10646-3 0  9997
2 49196  87.9289 181.4577 0002072  67.6521 292.4830 13.18681302 94751
ONEWEB-0328             
1 49197U 21083M   23227.36873707  .00000459  00000+0  12223-2 0  9990
2 49197  87.9081 166.4727 0002245  76.6474 283.4905 13.13469937 96085
ONEWEB-0331             
1 49198U 21083N   23227.37191849  .00000066  00000+0  13444-3 0  9993
2 49198  87.9289 181.6477 0002071  74.8272 285.3089 13.18686250 94648
ONEWEB-0333             
1 49199U 21083P   23227.36341347  .00000406  00000+0  10765-2 0  9993
2 49199  87.9081 166.4759 0001966  85.2696 274.8657 13.13465683 96096
ONEWEB-0334             
1 49200U 21083Q   23227.68231798  .00000019  00000+0  15222-4 0  9994
2 49200  87.9229 120.8640 0001380 106.5672 253.5613 13.20770973101268
ONEWEB-0335             
1 49201U 21083R   23227.35919438  .00000415  00000+0  11015-2 0  9997
2 49201  87.9089 166.4664 0002251  79.5847 280.5536 13.13473112 96103
ONEWEB-0336             
1 49202U 21083S   23228.39395783 -.00000253  00000+0 -72837-3 0  9996
2 49202  87.9084 166.2597 0001971  82.7680 277.3673 13.13469392 96247
ONEWEB-0337             
1 49203U 21083T   23228.11251698  .00000231  00000+0  59660-3 0  9996
2 49203  87.9082 166.3207 0002224  77.5911 282.5467 13.13470017 96207
